{"type": "FeatureCollection", "features": [ {"type": "Feature", "properties": {"norad_id": 54234, "name": "NOAA 21 (JPSS-2)", "group": "weather", "lat": -64.1985505564683, "lon": 81.39983066290512, "alt_km": 835.7198690523082, "timestamp": "2025-12-09T14:52:25.808460+00:00", "meta": {"OBJECT_NAME": "NOAA 21 (JPSS-2)", "OBJECT_ID": "2022-150A", "EPOCH": "2025-12-09T06:57:13.679424", "MEAN_MOTION": 14.19522877, "ECCENTRICITY": 0.00023548, "INCLINATION": 98.7458, "RA_OF_ASC_NODE": 279.6411, "ARG_OF_PERICENTER": 44.8106, "MEAN_ANOMALY": 315.326, "EPHEMERIS_TYPE": 0, "CLASSIFICATION_TYPE": "U", "NORAD_CAT_ID": 54234, "ELEMENT_SET_NO": 999, "REV_AT_EPOCH": 15960, "BSTAR": 0.00012525304, "MEAN_MOTION_DOT": 2.2e-06, "MEAN_MOTION_DDOT": 0}, "tle": {"line1": "1 54234U 22150A   25343.28974166  .00000220  00000+0  12525-3 0  9999", "line2": "2 54234  98.7458 279.6411 0002354  44.8106 315.3260 14.19522877159605"}}, "geometry": {"type": "Point", "coordinates": [81.39983066290512, -64.1985505564683]}}, {"type": "Feature", "properties": {"norad_id": 54743, "name": "METEOSAT-12 (MTG-I1)", "group": "weather", "lat": -0.7401018392576206, "lon": -58.4916813827768, "alt_km": 35780.9949099509, "timestamp": "2025-12-09T14:52:25.808472+00:00", "meta": {"OBJECT_NAME": "METEOSAT-12 (MTG-I1)", "OBJECT_ID": "2022-170C", "EPOCH": "2025-12-09T05:00:43.286112", "MEAN_MOTION": 1.00275152, "ECCENTRICITY": 0.00014487, "INCLINATION": 0.7264, "RA_OF_ASC_NODE": 31.0471, "ARG_OF_PERICENTER": 223.9483, "MEAN_ANOMALY": 258.1662, "EPHEMERIS_TYPE": 0, "CLASSIFICATION_TYPE": "U", "NORAD_CAT_ID": 54743, "ELEMENT_SET_NO": 999, "REV_AT_EPOCH": 1107, "BSTAR": 0, "MEAN_MOTION_DOT": -4e-08, "MEAN_MOTION_DDOT": 0}, "tle": {"line1": "1 54743U 22170C   25343.20883433 -.00000004  00000+0  00000+0 0  9996", "line2": "2 54743   0.7264  31.0471 0001448 223.9483 258.1662  1.00275152 11070"}}, "geometry": {"type": "Point", "coordinates": [-58.4916813827768, -0.7401018392576206]}}, {"type": "Feature", "properties": {"norad_id": 55973, "name": "TIANMU-1 03", "group": "weather", "lat": -69.4916392283444, "lon": -54.470765083243926, "alt_km": 454.18119181799466, "timestamp": "2025-12-09T14:52:25.808486+00:00", "meta": {"OBJECT_NAME": "TIANMU-1 03", "OBJECT_ID": "2023-039A", "EPOCH": "2025-12-09T05:59:42.948960", "MEAN_MOTION": 15.40764007, "ECCENTRICITY": 0.00045035, "INCLINATION": 97.5112, "RA_OF_ASC_NODE": 145.8045, "ARG_OF_PERICENTER": 71.0256, "MEAN_ANOMALY": 289.1478, "EPHEMERIS_TYPE": 0, "CLASSIFICATION_TYPE": "U", "NORAD_CAT_ID": 55973, "ELEMENT_SET_NO": 999, "REV_AT_EPOCH": 15152, "BSTAR": 0.00048539669, "MEAN_MOTION_DOT": 0.00019805, "MEAN_MOTION_DDOT": 0}, "tle": {"line1": "1 55973U 23039A   25343.24980265  .00019805  00000+0  48540-3 0  9995", "line2": "2 55973  97.5112 145.8045 0004503  71.0256 289.1478 15.40764007151523"}}, "geometry": {"type": "Point", "coordinates": [-54.470765083243926, -69.4916392283444]}}, {"type": "Feature", "properties": {"norad_id": 55974, "name": "TIANMU-1 04", "group": "weather", "lat": 0.8370428956377628, "lon": 145.26644790135492, "alt_km": 444.2772630750633, "timestamp": "2025-12-09T14:52:25.808497+00:00", "meta": {"OBJECT_NAME": "TIANMU-1 04", "OBJECT_ID": "2023-039B", "EPOCH": "2025-12-09T07:04:42.650976", "MEAN_MOTION": 15.41100125, "ECCENTRICITY": 0.00051845, "INCLINATION": 97.5044, "RA_OF_ASC_NODE": 145.0432, "ARG_OF_PERICENTER": 66.1419, "MEAN_ANOMALY": 294.037, "EPHEMERIS_TYPE": 0, "CLASSIFICATION_TYPE": "U", "NORAD_CAT_ID": 55974, "ELEMENT_SET_NO": 999, "REV_AT_EPOCH": 15153, "BSTAR": 0.00047190646, "MEAN_MOTION_DOT": 0.00019469, "MEAN_MOTION_DDOT": 0}, "tle": {"line1": "1 55974U 23039B   25343.29493809  .00019469  00000+0  47191-3 0  9991", "line2": "2 55974  97.5044 145.0432 0005184  66.1419 294.0370 15.41100125151535"}}, "geometry": {"type": "Point", "coordinates": [145.26644790135492, 0.8370428956377628]}}, {"type": "Feature", "properties": {"norad_id": 55975, "name": "TIANMU-1 05", "group": "weather", "lat": 36.65543348121509, "lon": 140.23568585383055, "alt_km": 439.47975143581607, "timestamp": "2025-12-09T14:52:25.808507+00:00", "meta": {"OBJECT_NAME": "TIANMU-1 05", "OBJECT_ID": "2023-039C", "EPOCH": "2025-12-09T06:55:12.513792", "MEAN_MOTION": 15.40723953, "ECCENTRICITY": 0.00043781, "INCLINATION": 97.5091, "RA_OF_ASC_NODE": 145.5286, "ARG_OF_PERICENTER": 87.5038, "MEAN_ANOMALY": 272.671, "EPHEMERIS_TYPE": 0, "CLASSIFICATION_TYPE": "U", "NORAD_CAT_ID": 55975, "ELEMENT_SET_NO": 999, "REV_AT_EPOCH": 15151, "BSTAR": 0.0004892377, "MEAN_MOTION_DOT": 0.00019936, "MEAN_MOTION_DDOT": 0}, "tle": {"line1": "1 55975U 23039C   25343.28833928  .00019936  00000+0  48924-3 0  9995", "line2": "2 55975  97.5091 145.5286 0004378  87.5038 272.6710 15.40723953151515"}}, "geometry": {"type": "Point", "coordinates": [140.23568585383055, 36.65543348121509]}}, {"type": "Feature", "properties": {"norad_id": 55976, "name": "TIANMU-1 06", "group": "weather", "lat": -11.696701451119436, "lon": 147.89663481747388, "alt_km": 447.35895355484354, "timestamp": "2025-12-09T14:52:25.808521+00:00", "meta": {"OBJECT_NAME": "TIANMU-1 06", "OBJECT_ID": "2023-039D", "EPOCH": "2025-12-09T07:08:00.627936", "MEAN_MOTION": 15.41153364, "ECCENTRICITY": 0.00046968, "INCLINATION": 97.5102, "RA_OF_ASC_NODE": 146, "ARG_OF_PERICENTER": 82.9681, "MEAN_ANOMALY": 277.2099, "EPHEMERIS_TYPE": 0, "CLASSIFICATION_TYPE": "U", "NORAD_CAT_ID": 55976, "ELEMENT_SET_NO": 999, "REV_AT_EPOCH": 15153, "BSTAR": 0.00048816608, "MEAN_MOTION_DOT": 0.00020178, "MEAN_MOTION_DDOT": 0}, "tle": {"line1": "1 55976U 23039D   25343.29722949  .00020178  00000+0  48817-3 0  9998", "line2": "2 55976  97.5102 146.0000 0004696  82.9681 277.2099 15.41153364151532"}}, "geometry": {"type": "Point", "coordinates": [147.89663481747388, -11.696701451119436]}}, {"type": "Feature", "properties": {"norad_id": 56232, "name": "FENGYUN 3G", "group": "weather", "lat": -49.73963536954504, "lon": 146.19108955512914, "alt_km": 415.49474935351645, "timestamp": "2025-12-09T14:52:25.808532+00:00", "meta": {"OBJECT_NAME": "FENGYUN 3G", "OBJECT_ID": "2023-055A", "EPOCH": "2025-12-09T07:33:42.923232", "MEAN_MOTION": 15.53330578, "ECCENTRICITY": 0.00092677, "INCLINATION": 49.9935, "RA_OF_ASC_NODE": 245.1236, "ARG_OF_PERICENTER": 132.2351, "MEAN_ANOMALY": 227.9405, "EPHEMERIS_TYPE": 0, "CLASSIFICATION_TYPE": "U", "NORAD_CAT_ID": 56232, "ELEMENT_SET_NO": 999, "REV_AT_EPOCH": 15049, "BSTAR": 0.00061566914, "MEAN_MOTION_DOT": 0.00039435, "MEAN_MOTION_DDOT": 0}, "tle": {"line1": "1 56232U 23055A   25343.31508013  .00039435  00000+0  61567-3 0  9992", "line2": "2 56232  49.9935 245.1236 0009267 132.2351 227.9405 15.53330578150491"}}, "geometry": {"type": "Point", "coordinates": [146.19108955512914, -49.73963536954504]}}, {"type": "Feature", "properties": {"norad_id": 57166, "name": "METEOR-M2 3", "group": "weather", "lat": 75.44325341972998, "lon": -106.95434575497882, "alt_km": 804.2984580887514, "timestamp": "2025-12-09T14:52:25.808543+00:00", "meta": {"OBJECT_NAME": "METEOR-M2 3", "OBJECT_ID": "2023-091A", "EPOCH": "2025-12-09T07:39:10.251360", "MEAN_MOTION": 14.2402552, "ECCENTRICITY": 0.00041069, "INCLINATION": 98.6383, "RA_OF_ASC_NODE": 36.9179, "ARG_OF_PERICENTER": 18.1928, "MEAN_ANOMALY": 341.9397, "EPHEMERIS_TYPE": 0, "CLASSIFICATION_TYPE": "U", "NORAD_CAT_ID": 57166, "ELEMENT_SET_NO": 999, "REV_AT_EPOCH": 12749, "BSTAR": 4.1025418e-05, "MEAN_MOTION_DOT": 5.1e-07, "MEAN_MOTION_DDOT": 0}, "tle": {"line1": "1 57166U 23091A   25343.31886865  .00000051  00000+0  41025-4 0  9993", "line2": "2 57166  98.6383  36.9179 0004106  18.1928 341.9397 14.24025520127493"}}, "geometry": {"type": "Point", "coordinates": [-106.95434575497882, 75.44325341972998]}}, {"type": "Feature", "properties": {"norad_id": 57399, "name": "TIANMU-1 07", "group": "weather", "lat": -22.477999770186226, "lon": -149.49701515670793, "alt_km": 488.830230145878, "timestamp": "2025-12-09T14:52:25.808554+00:00", "meta": {"OBJECT_NAME": "TIANMU-1 07", "OBJECT_ID": "2023-101A", "EPOCH": "2025-12-09T07:42:13.739904", "MEAN_MOTION": 15.27993625, "ECCENTRICITY": 0.00056441, "INCLINATION": 97.2876, "RA_OF_ASC_NODE": 33.2461, "ARG_OF_PERICENTER": 90.1528, "MEAN_ANOMALY": 270.0359, "EPHEMERIS_TYPE": 0, "CLASSIFICATION_TYPE": "U", "NORAD_CAT_ID": 57399, "ELEMENT_SET_NO": 999, "REV_AT_EPOCH": 13263, "BSTAR": 0.00035908466, "MEAN_MOTION_DOT": 9.742e-05, "MEAN_MOTION_DDOT": 0}, "tle": {"line1": "1 57399U 23101A   25343.32099236  .00009742  00000+0  35908-3 0  9990", "line2": "2 57399  97.2876  33.2461 0005644  90.1528 270.0359 15.27993625132637"}}, "geometry": {"type": "Point", "coordinates": [-149.49701515670793, -22.477999770186226]}}, {"type": "Feature", "properties": {"norad_id": 57400, "name": "TIANMU-1 08", "group": "weather", "lat": 24.011368783789578, "lon": 30.06928153811776, "alt_km": 479.4261784576611, "timestamp": "2025-12-09T14:52:25.808566+00:00", "meta": {"OBJECT_NAME": "TIANMU-1 08", "OBJECT_ID": "2023-101B", "EPOCH": "2025-12-09T06:54:34.627392", "MEAN_MOTION": 15.2797718, "ECCENTRICITY": 0.00075597, "INCLINATION": 97.2865, "RA_OF_ASC_NODE": 33.0124, "ARG_OF_PERICENTER": 93.5393, "MEAN_ANOMALY": 266.6712, "EPHEMERIS_TYPE": 0, "CLASSIFICATION_TYPE": "U", "NORAD_CAT_ID": 57400, "ELEMENT_SET_NO": 999, "REV_AT_EPOCH": 13262, "BSTAR": 0.00037538554, "MEAN_MOTION_DOT": 0.00010186, "MEAN_MOTION_DDOT": 0}, "tle": {"line1": "1 57400U 23101B   25343.28790078  .00010186  00000+0  37539-3 0  9996", "line2": "2 57400  97.2865  33.0124 0007559  93.5393 266.6712 15.27977180132627"}}, "geometry": {"type": "Point", "coordinates": [30.06928153811776, 24.011368783789578]}}]}